FENGYUN 1C DEB          
1 30111U 99025RQ  17345.90239207  .00002066  00000-0  59785-3 0  9994
2 30111 101.6070 199.8336 0106307 282.0294 197.5843 14.43040958566402
